[{"OBJECT_NAME":"FLOCK 4BE-28","OBJECT_ID":"2024-149BD","EPOCH":"2026-03-04T11:04:48.970560","MEAN_MOTION":15.40722978,"ECCENTRICITY":0.00035123,"INCLINATION":97.3792,"RA_OF_ASC_NODE":147.916,"ARG_OF_PERICENTER":308.8026,"MEAN_ANOMALY":51.2906,"EPHEMERIS_TYPE":0,"CLASSIFICATION_TYPE":"U","NORAD_CAT_ID":60519,"ELEMENT_SET_NO":999,"REV_AT_EPOCH":8629,"BSTAR":0.00086250933,"MEAN_MOTION_DOT":0.00035278,"MEAN_MOTION_DDOT":0},{"OBJECT_NAME":"FLOCK 4BE-35","OBJECT_ID":"2024-149CU","EPOCH":"2026-03-04T10:56:29.709024","MEAN_MOTION":15.42530285,"ECCENTRICITY":0.00045373,"INCLINATION":97.38,"RA_OF_ASC_NODE":146.632,"ARG_OF_PERICENTER":276.0787,"MEAN_ANOMALY":83.9944,"EPHEMERIS_TYPE":0,"CLASSIFICATION_TYPE":"U","NORAD_CAT_ID":60558,"ELEMENT_SET_NO":999,"REV_AT_EPOCH":8619,"BSTAR":0.0031293325,"MEAN_MOTION_DOT":0.0013797,"MEAN_MOTION_DDOT":0},{"OBJECT_NAME":"FLOCK 4BE-5","OBJECT_ID":"2024-149CV","EPOCH":"2026-03-04T10:52:40.538208","MEAN_MOTION":15.36758194,"ECCENTRICITY":0.00025184,"INCLINATION":97.3889,"RA_OF_ASC_NODE":146.6906,"ARG_OF_PERICENTER":317.6119,"MEAN_ANOMALY":42.493,"EPHEMERIS_TYPE":0,"CLASSIFICATION_TYPE":"U","NORAD_CAT_ID":60559,"ELEMENT_SET_NO":999,"REV_AT_EPOCH":8617,"BSTAR":0.00089644416,"MEAN_MOTION_DOT":0.00032212,"MEAN_MOTION_DDOT":0},{"OBJECT_NAME":"FLOCK 4BE-12","OBJECT_ID":"2024-149CW","EPOCH":"2026-03-04T05:29:29.037984","MEAN_MOTION":15.4535469,"ECCENTRICITY":0.00056807,"INCLINATION":97.3773,"RA_OF_ASC_NODE":147.1069,"ARG_OF_PERICENTER":279.8944,"MEAN_ANOMALY":80.1663,"EPHEMERIS_TYPE":0,"CLASSIFICATION_TYPE":"U","NORAD_CAT_ID":60560,"ELEMENT_SET_NO":999,"REV_AT_EPOCH":8622,"BSTAR":0.0030835154,"MEAN_MOTION_DOT":0.00149762,"MEAN_MOTION_DDOT":0},{"OBJECT_NAME":"FLOCK 4BE-3","OBJECT_ID":"2024-149CX","EPOCH":"2026-03-04T11:02:19.650624","MEAN_MOTION":15.37964716,"ECCENTRICITY":0.00031419,"INCLINATION":97.3752,"RA_OF_ASC_NODE":146.6212,"ARG_OF_PERICENTER":304.2142,"MEAN_ANOMALY":55.8805,"EPHEMERIS_TYPE":0,"CLASSIFICATION_TYPE":"U","NORAD_CAT_ID":60561,"ELEMENT_SET_NO":999,"REV_AT_EPOCH":8622,"BSTAR":0.00073754283,"MEAN_MOTION_DOT":0.00027524,"MEAN_MOTION_DDOT":0},{"OBJECT_NAME":"FLOCK 4BE-19","OBJECT_ID":"2024-149CZ","EPOCH":"2026-03-04T06:41:47.112000","MEAN_MOTION":15.40060987,"ECCENTRICITY":0.0003165,"INCLINATION":97.3791,"RA_OF_ASC_NODE":147.5241,"ARG_OF_PERICENTER":310.8312,"MEAN_ANOMALY":49.2659,"EPHEMERIS_TYPE":0,"CLASSIFICATION_TYPE":"U","NORAD_CAT_ID":60563,"ELEMENT_SET_NO":999,"REV_AT_EPOCH":8625,"BSTAR":0.00081024557,"MEAN_MOTION_DOT":0.00032408,"MEAN_MOTION_DDOT":0},{"OBJECT_NAME":"PELICAN-2","OBJECT_ID":"2025-009Y","EPOCH":"2026-03-04T04:53:50.110944","MEAN_MOTION":15.40310721,"ECCENTRICITY":0.00067489,"INCLINATION":97.4036,"RA_OF_ASC_NODE":153.4417,"ARG_OF_PERICENTER":221.664,"MEAN_ANOMALY":138.4092,"EPHEMERIS_TYPE":0,"CLASSIFICATION_TYPE":"U","NORAD_CAT_ID":62631,"ELEMENT_SET_NO":999,"REV_AT_EPOCH":6339,"BSTAR":0.0017565261,"MEAN_MOTION_DOT":0.00071333,"MEAN_MOTION_DDOT":0},{"OBJECT_NAME":"PELICAN-3","OBJECT_ID":"2025-188A","EPOCH":"2026-03-04T03:42:20.155680","MEAN_MOTION":15.40590716,"ECCENTRICITY":0.00026278,"INCLINATION":97.2252,"RA_OF_ASC_NODE":140.7668,"ARG_OF_PERICENTER":213.2891,"MEAN_ANOMALY":146.8191,"EPHEMERIS_TYPE":0,"CLASSIFICATION_TYPE":"U","NORAD_CAT_ID":65315,"ELEMENT_SET_NO":999,"REV_AT_EPOCH":2914,"BSTAR":0.00012072244,"MEAN_MOTION_DOT":4.827e-5,"MEAN_MOTION_DDOT":0},{"OBJECT_NAME":"PELICAN-4","OBJECT_ID":"2025-188B","EPOCH":"2026-03-04T04:04:50.121984","MEAN_MOTION":15.40623414,"ECCENTRICITY":0.00046344,"INCLINATION":97.2337,"RA_OF_ASC_NODE":140.8795,"ARG_OF_PERICENTER":102.6575,"MEAN_ANOMALY":257.519,"EPHEMERIS_TYPE":0,"CLASSIFICATION_TYPE":"U","NORAD_CAT_ID":65316,"ELEMENT_SET_NO":999,"REV_AT_EPOCH":2914,"BSTAR":0.00037427894,"MEAN_MOTION_DOT":0.00015176,"MEAN_MOTION_DDOT":0}]
